{
  "53438": {
    "noradId": "53438",
    "tle": [
      "1 53438C 22097BC  25339.17201389  .00008393  00000+0  52642-3 0  3398",
      "2 53438  53.2136 168.0719 0001338  83.7963 140.7592 15.08820533    12"
    ]
  },
  "53439": {
    "noradId": "53439",
    "tle": [
      "1 53439C 22097BD  25339.15326389  .00009636  00000+0  60430-3 0  3390",
      "2 53439  53.2140 168.2800 0001366  85.2547 332.1201 15.08826248    10"
    ]
  },
  "53465": {
    "noradId": "53465",
    "tle": [
      "1 53465C 22099A   25339.17131944  .00002961  00000+0  20562-3 0  3390",
      "2 53465  97.6040  98.0517 0001491  97.0287 188.6461 15.05649932    18"
    ]
  },
  "53466": {
    "noradId": "53466",
    "tle": [
      "1 53466C 22099B   25339.16993056 -.00001427  00000+0 -11130-3 0  3399",
      "2 53466  97.6028  97.6792 0001842  94.0621  23.4224 15.01263961    17"
    ]
  },
  "53467": {
    "noradId": "53467",
    "tle": [
      "1 53467C 22099C   25339.17062500  .00011526  00000+0  80036-3 0  3392",
      "2 53467  97.6030  98.1080 0000843 109.8436 202.0520 15.05639065    16"
    ]
  },
  "53468": {
    "noradId": "53468",
    "tle": [
      "1 53468C 22099D   25339.17409722  .00008379  00000+0  65366-3 0  3395",
      "2 53468  97.6028  97.6830 0002381  92.6118  67.3923 15.01250409    12"
    ]
  },
  "53469": {
    "noradId": "53469",
    "tle": [
      "1 53469C 22099E   25339.16784722  .00002387  00000+0  16580-3 0  3398",
      "2 53469  97.6019  98.0701 0000633 117.0384 239.8353 15.05642658    18"
    ]
  },
  "53470": {
    "noradId": "53470",
    "tle": [
      "1 53470C 22099F   25339.16715278  .00012678  00000+0  98882-3 0  3399",
      "2 53470  97.6029  97.6769 0002328  87.2580  46.5443 15.01252048    18"
    ]
  },
  "53471": {
    "noradId": "53471",
    "tle": [
      "1 53471C 22099G   25339.17131944  .00001491  00000+0  10351-3 0  3399",
      "2 53471  97.6033  98.0207 0001117 100.5747 170.1221 15.05648174    16"
    ]
  },
  "53472": {
    "noradId": "53472",
    "tle": [
      "1 53472C 22099H   25339.17756944  .00007129  00000+0  55600-3 0  3393",
      "2 53472  97.6029  97.6907 0003384  84.2030 125.8658 15.01256773    12"
    ]
  },
  "53473": {
    "noradId": "53473",
    "tle": [
      "1 53473C 22099J   25339.17548611 -.00030847  00000+0 -21427-2 0  3398",
      "2 53473  97.6026  98.0929 0000603 100.1264  13.1618 15.05669232    14"
    ]
  },
  "53474": {
    "noradId": "53474",
    "tle": [
      "1 53474C 22099K   25339.16923611  .00040883  00000+0  31901-2 0  3392",
      "2 53474  97.6029  97.6787 0002967  67.9472 165.7268 15.01206356    16"
    ]
  },
  "53475": {
    "noradId": "53475",
    "tle": [
      "1 53475C 22099L   25339.17409722  .00005672  00000+0  44240-3 0  3394",
      "2 53475  97.6031  97.6854 0002710  94.1751 137.1468 15.01254008    15"
    ]
  },
  "53476": {
    "noradId": "53476",
    "tle": [
      "1 53476C 22099M   25339.17062500  .00003489  00000+0  27220-3 0  3397",
      "2 53476  97.6027  97.6847 0003555  80.8359 111.7378 15.01252777    16"
    ]
  },
  "53477": {
    "noradId": "53477",
    "tle": [
      "1 53477C 22099N   25339.17131944 -.00061219  00000+0 -47756-2 0  3399",
      "2 53477  97.6027  97.6432 0001935  83.7594  52.5921 15.01321259    18"
    ]
  },
  "53478": {
    "noradId": "53478",
    "tle": [
      "1 53478C 22099P   25339.16993056  .00001961  00000+0  15299-3 0  3393",
      "2 53478  97.6030  97.6933 0003416  80.5833 148.2416 15.01255959    11"
    ]
  },
  "53479": {
    "noradId": "53479",
    "tle": [
      "1 53479C 22099Q   25339.16923611  .00009005  00000+0  62530-3 0  3391",
      "2 53479  97.6034  98.1221 0001838  99.3843  99.9805 15.05641325    11"
    ]
  },
  "53480": {
    "noradId": "53480",
    "tle": [
      "1 53480C 22099R   25339.16923611  .00012551  00000+0  87144-3 0  3391",
      "2 53480  97.6023  98.0334 0001090  95.6160 238.7741 15.05641178    14"
    ]
  },
  "53481": {
    "noradId": "53481",
    "tle": [
      "1 53481C 22099S   25339.16923611  .00010794  00000+0  84188-3 0  3394",
      "2 53481  97.6026  97.6781 0002196  95.4795 149.5898 15.01253070    17"
    ]
  },
  "53482": {
    "noradId": "53482",
    "tle": [
      "1 53482C 22099T   25339.16993056  .00018420  00000+0  14368-2 0  3391",
      "2 53482  97.6020  97.6982 0001583 259.2602  49.5467 15.01243413    12"
    ]
  },
  "53484": {
    "noradId": "53484",
    "tle": [
      "1 53484C 22099V   25339.17270833  .00014543  00000+0  10101-2 0  3398",
      "2 53484  97.6024  98.0265 0001050  82.0369 286.2032 15.05628114    15"
    ]
  },
  "53485": {
    "noradId": "53485",
    "tle": [
      "1 53485C 22099W   25339.16506944  .00017877  00000+0  13946-2 0  3396",
      "2 53485  97.6015  97.6706 0000261 126.2858 136.2647 15.01242272    17"
    ]
  },
  "53486": {
    "noradId": "53486",
    "tle": [
      "1 53486C 22099X   25339.16784722  .00006084  00000+0  47458-3 0  3393",
      "2 53486  97.6016  97.6751 0000927 104.1933 153.3649 15.01256609    18"
    ]
  },
  "53487": {
    "noradId": "53487",
    "tle": [
      "1 53487C 22099Y   25339.17479167  .00001657  00000+0  11508-3 0  3397",
      "2 53487  97.6031  98.0519 0000924 106.0808  18.4205 15.05646343    13"
    ]
  },
  "53488": {
    "noradId": "53488",
    "tle": [
      "1 53488C 22099Z   25339.15951389  .00008465  00000+0  58779-3 0  3392",
      "2 53488  97.6036  98.1014 0000532  96.2149  65.4941 15.05642305    16"
    ]
  },
  "53489": {
    "noradId": "53489",
    "tle": [
      "1 53489C 22099AA  25339.17201389 -.00001071  00000+0 -83597-4 0  3398",
      "2 53489  97.6015  97.6610 0000995 104.1375 184.6872 15.01242722    15"
    ]
  },
  "53490": {
    "noradId": "53490",
    "tle": [
      "1 53490C 22099AB  25339.16784722 -.00020048  00000+0 -13917-2 0  3398",
      "2 53490  97.6023  98.0279 0000827  92.8607 308.9883 15.05682290    12"
    ]
  },
  "53491": {
    "noradId": "53491",
    "tle": [
      "1 53491C 22099AC  25339.17270833  .00004988  00000+0  38902-3 0  3398",
      "2 53491  97.6030  97.6790 0003823 183.0544 189.4379 15.01258632    13"
    ]
  },
  "53492": {
    "noradId": "53492",
    "tle": [
      "1 53492C 22099AD  25339.16854167  .00007789  00000+0  60748-3 0  3391",
      "2 53492  97.6023  97.6736 0003826 220.5716 100.7377 15.01255637    13"
    ]
  },
  "53493": {
    "noradId": "53493",
    "tle": [
      "1 53493C 22099AE  25339.17201389  .00013676  00000+0  77455-4 0  3391",
      "2 53493  97.6522 103.8012 0001453  81.1454 161.4762 15.79045948    18"
    ]
  },
  "53494": {
    "noradId": "53494",
    "tle": [
      "1 53494C 22099AF  25339.18034722 -.00001999  00000+0 -13884-3 0  3390",
      "2 53494  97.6038  98.1060 0001823  97.8946 191.6746 15.05651138    11"
    ]
  },
  "53495": {
    "noradId": "53495",
    "tle": [
      "1 53495C 22099AG  25339.16854167  .00001271  00000+0  99113-4 0  3393",
      "2 53495  97.6034  97.6670 0001988 205.8877 155.4241 15.01259879    15"
    ]
  },
  "53496": {
    "noradId": "53496",
    "tle": [
      "1 53496C 22099AH  25339.14770833 -.00003632  00000+0 -20577-4 0  3392",
      "2 53496  97.6492 110.6819 0001231  31.1226  87.8779 15.79057389    15"
    ]
  },
  "53497": {
    "noradId": "53497",
    "tle": [
      "1 53497C 22099AJ  25339.17270833 -.00028359  00000+0 -22114-2 0  3391",
      "2 53497  97.6041  97.6719 0002082 205.8416 197.9681 15.01302885    19"
    ]
  },
  "53498": {
    "noradId": "53498",
    "tle": [
      "1 53498C 22099AK  25339.16854167  .00004271  00000+0  29658-3 0  3395",
      "2 53498  97.6030  97.9958 0000972  83.0271 307.6374 15.05641734    19"
    ]
  },
  "53499": {
    "noradId": "53499",
    "tle": [
      "1 53499C 22099AL  25339.16854167  .00011116  00000+0  77198-3 0  3394",
      "2 53499  97.6028  98.1026 0000900  85.7746 229.8445 15.05636831    19"
    ]
  },
  "53500": {
    "noradId": "53500",
    "tle": [
      "1 53500C 22099AM  25339.16993056  .00021905  00000+0  15210-2 0  3391",
      "2 53500  97.6020  98.1370 0000935  76.5891 306.5180 15.05630328    17"
    ]
  },
  "53501": {
    "noradId": "53501",
    "tle": [
      "1 53501C 22099AN  25339.16715278  .00006498  00000+0  50688-3 0  3399",
      "2 53501  97.6039  97.6800 0002066 218.5204 195.2979 15.01253179    13"
    ]
  },
  "53502": {
    "noradId": "53502",
    "tle": [
      "1 53502C 22099AP  25339.16784722  .00011264  00000+0  78205-3 0  3392",
      "2 53502  97.6042  98.0379 0001760  92.7037  69.1574 15.05644465    16"
    ]
  },
  "53503": {
    "noradId": "53503",
    "tle": [
      "1 53503C 22099AQ  25339.17062500 -.00001944  00000+0 -11015-4 0  3390",
      "2 53503  97.6452 111.3971 0003809 306.7298 172.0915 15.79046813    19"
    ]
  },
  "53504": {
    "noradId": "53504",
    "tle": [
      "1 53504C 22099AR  25339.17201389  .00010365  00000+0  80852-3 0  3390",
      "2 53504  97.6051  97.6752 0002227 258.3806 161.6906 15.01249554    14"
    ]
  },
  "53505": {
    "noradId": "53505",
    "tle": [
      "1 53505C 22099AS  25339.16715278  .00010946  00000+0  85383-3 0  3396",
      "2 53505  97.6037  97.6791 0001512 180.0604 253.7460 15.01252164    14"
    ]
  },
  "53506": {
    "noradId": "53506",
    "tle": [
      "1 53506C 22099AT  25339.16784722  .00003596  00000+0  24970-3 0  3395",
      "2 53506  97.6044  98.0081 0001147 100.4585  31.4322 15.05645278    12"
    ]
  },
  "53508": {
    "noradId": "53508",
    "tle": [
      "1 53508C 22099AV  25339.16993056  .00020456  00000+0  14209-2 0  3396",
      "2 53508  97.6041  98.0732 0001734  86.4926 206.6545 15.05617480    15"
    ]
  },
  "53509": {
    "noradId": "53509",
    "tle": [
      "1 53509C 22099AW  25339.17062500 -.00001256  00000+0 -97988-4 0  3395",
      "2 53509  97.6032  97.6811 0001395  93.6209  18.9357 15.01264647    10"
    ]
  }
}